start=new Date('2023-04-27T00:00:00.000Z').valueOf();
sats=[{"APOAPSIS":"548.292","ECCENTRICITY":"0.00015260","EPHEMERIS_TYPE":"0","FILE":"3894261","OBJECT_TYPE":"PAYLOAD","TLE_LINE1":"1 47667U 21012AZ  23116.65741011  .00012852  00000-0  88028-3 0  9991","OBJECT_NAME":"STARLINK-2058","REV_AT_EPOCH":"12200","NORAD_CAT_ID":"47667","RA_OF_ASC_NODE":"96.4130","INCLINATION":"53.0544","TLE_LINE2":"2 47667  53.0544  96.4130 0001526  89.3493 270.7670 15.06392810122005","MEAN_MOTION_DDOT":"0.0000000000000","GP_ID":"230799174","RCS_SIZE":"LARGE","BSTAR":"0.00088028000000","CENTER_NAME":"EARTH","COUNTRY_CODE":"US","PERIOD":"95.593","MEAN_MOTION_DOT":"0.00012852","REF_FRAME":"TEME","EPOCH":"2023-04-26T15:46:40.233504","MEAN_ANOMALY":"270.7670","MEAN_MOTION":"15.06392810","OBJECT_ID":"2021-012AZ","SITE":"AFETR","PERIAPSIS":"546.179","LAUNCH_DATE":"2021-02-16","TIME_SYSTEM":"UTC","ELEMENT_SET_NO":"999","MEAN_ELEMENT_THEORY":"SGP4","DECAY_DATE":null,"ARG_OF_PERICENTER":"89.3493","SEMIMAJOR_AXIS":"6925.371","CLASSIFICATION_TYPE":"U"},{"OBJECT_NAME":"STARLINK-2059","TLE_LINE1":"1 47668U 21012BA  23116.30170374  .00025111  00000-0  16992-2 0  9994","OBJECT_TYPE":"PAYLOAD","FILE":"3894260","APOAPSIS":"548.107","ECCENTRICITY":"0.00012380","EPHEMERIS_TYPE":"0","REV_AT_EPOCH":"12225","NORAD_CAT_ID":"47668","INCLINATION":"53.0535","TLE_LINE2":"2 47668  53.0535  78.0116 0001238  97.9374 262.1756 15.06388157122255","RA_OF_ASC_NODE":"78.0116","BSTAR":"0.00169920000000","GP_ID":"230771146","RCS_SIZE":"LARGE","MEAN_MOTION_DDOT":"0.0000000000000","MEAN_MOTION_DOT":"0.00025111","REF_FRAME":"TEME","PERIOD":"95.593","COUNTRY_CODE":"US","CENTER_NAME":"EARTH","OBJECT_ID":"2021-012BA","MEAN_ANOMALY":"262.1756","MEAN_MOTION":"15.06388157","EPOCH":"2023-04-26T07:14:27.203136","TIME_SYSTEM":"UTC","LAUNCH_DATE":"2021-02-16","SITE":"AFETR","PERIAPSIS":"546.392","CLASSIFICATION_TYPE":"U","DECAY_DATE":null,"ARG_OF_PERICENTER":"97.9374","SEMIMAJOR_AXIS":"6925.385","MEAN_ELEMENT_THEORY":"SGP4","ELEMENT_SET_NO":"999"},{"REF_FRAME":"TEME","MEAN_MOTION_DOT":"0.00131077","COUNTRY_CODE":"US","PERIOD":"93.414","CENTER_NAME":"EARTH","OBJECT_ID":"2021-012BB","MEAN_MOTION":"15.41522714","MEAN_ANOMALY":"181.5971","EPOCH":"2023-04-26T21:11:00.478752","TIME_SYSTEM":"UTC","LAUNCH_DATE":"2021-02-16","PERIAPSIS":"436.406","SITE":"AFETR","CLASSIFICATION_TYPE":"U","SEMIMAJOR_AXIS":"6819.752","ARG_OF_PERICENTER":"178.5057","DECAY_DATE":null,"MEAN_ELEMENT_THEORY":"SGP4","ELEMENT_SET_NO":"999","OBJECT_NAME":"STARLINK-2060","TLE_LINE1":"1 47669U 21012BB  23116.88264443  .00131077  00000-0  30315-2 0  9993","FILE":"3894261","OBJECT_TYPE":"PAYLOAD","EPHEMERIS_TYPE":"0","APOAPSIS":"446.828","ECCENTRICITY":"0.00076410","NORAD_CAT_ID":"47669","REV_AT_EPOCH":"12372","TLE_LINE2":"2 47669  53.0529 335.0453 0007641 178.5057 181.5971 15.41522714123721","INCLINATION":"53.0529","RA_OF_ASC_NODE":"335.0453","BSTAR":"0.00303150000000","RCS_SIZE":"LARGE","GP_ID":"230798172","MEAN_MOTION_DDOT":"0.0000000000000"},{"ELEMENT_SET_NO":"999","MEAN_ELEMENT_THEORY":"SGP4","ARG_OF_PERICENTER":"85.6569","DECAY_DATE":null,"SEMIMAJOR_AXIS":"6925.514","CLASSIFICATION_TYPE":"U","SITE":"AFETR","PERIAPSIS":"546.498","LAUNCH_DATE":"2021-02-16","TIME_SYSTEM":"UTC","EPOCH":"2023-04-26T04:24:37.793664","MEAN_ANOMALY":"274.4565","MEAN_MOTION":"15.06346160","OBJECT_ID":"2021-012BC","CENTER_NAME":"EARTH","COUNTRY_CODE":"US","PERIOD":"95.596","MEAN_MOTION_DOT":"-0.00010779","REF_FRAME":"TEME","MEAN_MOTION_DDOT":"0.0000000000000","GP_ID":"230770917","RCS_SIZE":"LARGE","BSTAR":"-0.00070687000000","RA_OF_ASC_NODE":"78.5409","INCLINATION":"53.0538","TLE_LINE2":"2 47670  53.0538  78.5409 0001272  85.6569 274.4565 15.06346160122228","REV_AT_EPOCH":"12222","NORAD_CAT_ID":"47670","ECCENTRICITY":"0.00012720","APOAPSIS":"548.260","EPHEMERIS_TYPE":"0","FILE":"3894260","OBJECT_TYPE":"PAYLOAD","TLE_LINE1":"1 47670U 21012BC  23116.18377076 -.00010779  00000-0 -70687-3 0  9999","OBJECT_NAME":"STARLINK-2062"},{"PERIOD":"95.592","COUNTRY_CODE":"US","CENTER_NAME":"EARTH","REF_FRAME":"TEME","MEAN_MOTION_DOT":"0.00017115","MEAN_MOTION":"15.06397525","MEAN_ANOMALY":"264.8083","EPOCH":"2023-04-26T07:09:08.674848","OBJECT_ID":"2021-012BD","LAUNCH_DATE":"2021-02-16","PERIAPSIS":"546.352","SITE":"AFETR","TIME_SYSTEM":"UTC","MEAN_ELEMENT_THEORY":"SGP4","ELEMENT_SET_NO":"999","CLASSIFICATION_TYPE":"U","SEMIMAJOR_AXIS":"6925.356","ARG_OF_PERICENTER":"95.3049","DECAY_DATE":null,"FILE":"3894260","OBJECT_TYPE":"PAYLOAD","EPHEMERIS_TYPE":"0","APOAPSIS":"548.090","ECCENTRICITY":"0.00012550","OBJECT_NAME":"STARLINK-2064","TLE_LINE1":"1 47671U 21012BD  23116.29801707  .00017115  00000-0  11652-2 0  9990","NORAD_CAT_ID":"47671","REV_AT_EPOCH":"12225","TLE_LINE2":"2 47671  53.0541  78.0302 0001255  95.3049 264.8083 15.06397525122254","INCLINATION":"53.0541","RA_OF_ASC_NODE":"78.0302","RCS_SIZE":"LARGE","GP_ID":"230771667","MEAN_MOTION_DDOT":"0.0000000000000","BSTAR":"0.00116520000000"},{"BSTAR":"0.00144570000000","MEAN_MOTION_DDOT":"0.0000000000000","GP_ID":"230772399","RCS_SIZE":"LARGE","RA_OF_ASC_NODE":"68.1217","INCLINATION":"53.0545","TLE_LINE2":"2 47672  53.0545  68.1217 0001472  88.5655 271.5502 15.06393499122361","REV_AT_EPOCH":"12236","NORAD_CAT_ID":"47672","TLE_LINE1":"1 47672U 21012BE  23116.27681958  .00021314  00000-0  14457-2 0  9995","OBJECT_NAME":"STARLINK-2065","APOAPSIS":"548.253","ECCENTRICITY":"0.00014720","EPHEMERIS_TYPE":"0","OBJECT_TYPE":"PAYLOAD","FILE":"3894260","DECAY_DATE":null,"ARG_OF_PERICENTER":"88.5655","SEMIMAJOR_AXIS":"6925.368","CLASSIFICATION_TYPE":"U","ELEMENT_SET_NO":"999","MEAN_ELEMENT_THEORY":"SGP4","TIME_SYSTEM":"UTC","SITE":"AFETR","PERIAPSIS":"546.214","LAUNCH_DATE":"2021-02-16","OBJECT_ID":"2021-012BE","EPOCH":"2023-04-26T06:38:37.211712","MEAN_ANOMALY":"271.5502","MEAN_MOTION":"15.06393499","MEAN_MOTION_DOT":"0.00021314","REF_FRAME":"TEME","CENTER_NAME":"EARTH","PERIOD":"95.593","COUNTRY_CODE":"US"},{"TIME_SYSTEM":"UTC","SITE":"AFETR","PERIAPSIS":"546.332","LAUNCH_DATE":"2021-02-16","DECAY_DATE":null,"ARG_OF_PERICENTER":"94.6037","SEMIMAJOR_AXIS":"6925.373","CLASSIFICATION_TYPE":"U","ELEMENT_SET_NO":"999","MEAN_ELEMENT_THEORY":"SGP4","MEAN_MOTION_DOT":"0.00019749","REF_FRAME":"TEME","CENTER_NAME":"EARTH","COUNTRY_CODE":"US","PERIOD":"95.593","OBJECT_ID":"2021-012BF","EPOCH":"2023-04-26T06:05:26.055456","MEAN_ANOMALY":"265.5101","MEAN_MOTION":"15.06391890","RA_OF_ASC_NODE":"78.2265","INCLINATION":"53.0537","TLE_LINE2":"2 47673  53.0537  78.2265 0001309  94.6037 265.5101 15.06391890122236","BSTAR":"0.00134130000000","MEAN_MOTION_DDOT":"0.0000000000000","GP_ID":"230771168","RCS_SIZE":"LARGE","TLE_LINE1":"1 47673U 21012BF  23116.25377379  .00019749  00000-0  13413-2 0  9993","OBJECT_NAME":"STARLINK-2066","ECCENTRICITY":"0.00013090","APOAPSIS":"548.145","EPHEMERIS_TYPE":"0","FILE":"3894260","OBJECT_TYPE":"PAYLOAD","REV_AT_EPOCH":"12223","NORAD_CAT_ID":"47673"},{"MEAN_ELEMENT_THEORY":"SGP4","ELEMENT_SET_NO":"999","CLASSIFICATION_TYPE":"U","SEMIMAJOR_AXIS":"6925.479","ARG_OF_PERICENTER":"84.4399","DECAY_DATE":null,"LAUNCH_DATE":"2021-02-16","PERIAPSIS":"546.383","SITE":"AFETR","TIME_SYSTEM":"UTC","MEAN_MOTION":"15.06357535","MEAN_ANOMALY":"275.6748","EPOCH":"2023-04-26T14:23:03.809760","OBJECT_ID":"2021-012BG","PERIOD":"95.595","COUNTRY_CODE":"US","CENTER_NAME":"EARTH","REF_FRAME":"TEME","MEAN_MOTION_DOT":"0.00018112","RCS_SIZE":"LARGE","GP_ID":"230798924","MEAN_MOTION_DDOT":"0.0000000000000","BSTAR":"0.00123310000000","TLE_LINE2":"2 47674  53.0539  76.6693 0001387  84.4399 275.6748 15.06357535122293","INCLINATION":"53.0539","RA_OF_ASC_NODE":"76.6693","NORAD_CAT_ID":"47674","REV_AT_EPOCH":"12229","OBJECT_TYPE":"PAYLOAD","FILE":"3894261","EPHEMERIS_TYPE":"0","APOAPSIS":"548.304","ECCENTRICITY":"0.00013870","OBJECT_NAME":"STARLINK-2067","TLE_LINE1":"1 47674U 21012BG  23116.59934965  .00018112  00000-0  12331-2 0  9992"},{"OBJECT_ID":"2021-012BH","EPOCH":"2023-04-26T04:40:33.547008","MEAN_MOTION":"15.06346288","MEAN_ANOMALY":"289.0303","REF_FRAME":"TEME","MEAN_MOTION_DOT":"0.00012756","CENTER_NAME":"EARTH","PERIOD":"95.596","COUNTRY_CODE":"US","SEMIMAJOR_AXIS":"6925.513","ARG_OF_PERICENTER":"71.0845","DECAY_DATE":null,"CLASSIFICATION_TYPE":"U","ELEMENT_SET_NO":"999","MEAN_ELEMENT_THEORY":"SGP4","TIME_SYSTEM":"UTC","PERIAPSIS":"546.362","SITE":"AFETR","LAUNCH_DATE":"2021-02-16","NORAD_CAT_ID":"47675","REV_AT_EPOCH":"12223","TLE_LINE1":"1 47675U 21012BH  23116.19483272  .00012756  00000-0  87496-3 0  9992","OBJECT_NAME":"STARLINK-2078","EPHEMERIS_TYPE":"0","ECCENTRICITY":"0.00014680","APOAPSIS":"548.395","FILE":"3894260","OBJECT_TYPE":"PAYLOAD","BSTAR":"0.00087496000000","MEAN_MOTION_DDOT":"0.0000000000000","RCS_SIZE":"LARGE","GP_ID":"230772168","RA_OF_ASC_NODE":"78.4924","TLE_LINE2":"2 47675  53.0549  78.4924 0001468  71.0845 289.0303 15.06346288122233","INCLINATION":"53.0549"},{"NORAD_CAT_ID":"47676","REV_AT_EPOCH":"12385","EPHEMERIS_TYPE":"0","ECCENTRICITY":"0.00009070","APOAPSIS":"547.742","OBJECT_TYPE":"PAYLOAD","FILE":"3894261","TLE_LINE1":"1 47676U 21012BJ  23116.85372351  .00023997  00000-0  16230-2 0  9997","OBJECT_NAME":"STARLINK-2083","MEAN_MOTION_DDOT":"0.0000000000000","RCS_SIZE":"LARGE","GP_ID":"230797923","BSTAR":"0.00162300000000","RA_OF_ASC_NODE":"325.5387","TLE_LINE2":"2 47676  53.0546 325.5387 0000907  84.8040 275.3052 15.06432597123853","INCLINATION":"53.0546","EPOCH":"2023-04-26T20:29:21.711264","MEAN_MOTION":"15.06432597","MEAN_ANOMALY":"275.3052","OBJECT_ID":"2021-012BJ","CENTER_NAME":"EARTH","COUNTRY_CODE":"US","PERIOD":"95.590","REF_FRAME":"TEME","MEAN_MOTION_DOT":"0.00023997","ELEMENT_SET_NO":"999","MEAN_ELEMENT_THEORY":"SGP4","SEMIMAJOR_AXIS":"6925.249","ARG_OF_PERICENTER":"84.8040","DECAY_DATE":null,"CLASSIFICATION_TYPE":"U","PERIAPSIS":"546.486","SITE":"AFETR","LAUNCH_DATE":"2021-02-16","TIME_SYSTEM":"UTC"}];
